NORAD_CAT_ID,OBJECT_NAME,OBJECT_TYPE,EPOCH,MEAN_MOTION,ECCENTRICITY,INCLINATION,RA_OF_ASC_NODE,ARG_OF_PERICENTER,MEAN_ANOMALY,BSTAR,MEAN_MOTION_DOT,MEAN_MOTION_DDOT,TLE_LINE0,TLE_LINE1,TLE_LINE2,SEMIMAJOR_AXIS,PERIOD,APOGEE,PERIGEE,DECAYED
56788.0,STARLINK-6336,PAYLOAD,2024-02-24 15:44:09,14.98338448,0.0002455,70.0005,40.4597,266.6697,93.4181,-0.00020412,-2.528e-05,0.0,0 STARLINK-6336,1 56788U 23078X   24055.65566634 -.00002528  00000-0 -20412-3 0  9992,2 56788  70.0005  40.4597 0002455 266.6697  93.4181 14.98338448 41985,6950.167,96.106,573.738,570.326,0.0
56788.0,STARLINK-6336,PAYLOAD,2024-02-24 22:08:41,14.98329915,0.0002639,69.9998,39.7854,268.866,91.2197,-4.517e-05,-6.32e-06,0.0,0 STARLINK-6336,1 56788U 23078X   24055.92270805 -.00000632  00000-0 -45170-4 0  9997,2 56788  69.9998  39.7854 0002639 268.8660  91.2197 14.98329915 41766,6950.193,96.107,573.892,570.224,0.0
56788.0,STARLINK-6336,PAYLOAD,2024-02-25 07:45:29,14.98333626,0.0002412,70.0007,38.7763,266.9391,93.1492,2.72e-05,2.32e-06,0.0,0 STARLINK-6336,1 56788U 23078X   24056.32326315  .00000232  00000-0  27200-4 0  9998,2 56788  70.0007  38.7763 0002412 266.9391  93.1492 14.98333626 41827,6950.182,96.107,573.723,570.37,0.0
56788.0,STARLINK-6336,PAYLOAD,2024-02-25 15:46:10,14.98351393,0.0002269,70.0013,37.9344,272.5845,87.5054,-0.00040681,-4.946e-05,0.0,0 STARLINK-6336,1 56788U 23078X   24056.65706161 -.00004946  00000-0 -40681-3 0  9990,2 56788  70.0013  37.9344 0002269 272.5845  87.5054 14.98351393 42134,6950.127,96.106,573.569,570.415,0.0
56788.0,STARLINK-6336,PAYLOAD,2024-02-26 04:35:14,14.98332993,0.0002548,70.0006,36.587,263.9071,96.1798,2.6095e-05,2.18e-06,0.0,0 STARLINK-6336,1 56788U 23078X   24057.19114223  .00000218  00000-0  26095-4 0  9992,2 56788  70.0006  36.5870 0002548 263.9071  96.1798 14.98332993 42215,6950.184,96.107,573.82,570.278,0.0
56788.0,STARLINK-6336,PAYLOAD,2024-02-26 07:47:30,14.98334411,0.0002694,70.0007,36.2502,264.3907,95.6945,3.1648e-05,2.85e-06,0.0,0 STARLINK-6336,1 56788U 23078X   24057.32466087  .00000285  00000-0  31648-4 0  9999,2 56788  70.0007  36.2502 0002694 264.3907  95.6945 14.98334411 41977,6950.179,96.107,573.917,570.172,0.0
56788.0,STARLINK-6336,PAYLOAD,2024-02-27 01:25:00,14.98317195,0.0002687,70.0001,34.399,260.7625,99.323,-3.4019e-05,-4.99e-06,0.0,0 STARLINK-6336,1 56788U 23078X   24058.05903297 -.00000499  00000-0 -34019-4 0  9993,2 56788  70.0001  34.3990 0002687 260.7625  99.3230 14.98317195 42340,6950.232,96.108,573.965,570.23,0.0
56788.0,STARLINK-6336,PAYLOAD,2024-02-27 07:49:32,14.98325719,0.0001809,70.0023,33.7267,274.1889,85.9064,-5.4647e-05,-7.45e-06,0.0,0 STARLINK-6336,1 56788U 23078X   24058.32607187 -.00000745  00000-0 -54647-4 0  9995,2 56788  70.0023  33.7267 0001809 274.1889  85.9064 14.98325719 42123,6950.206,96.107,573.328,570.814,0.0
56788.0,STARLINK-6336,PAYLOAD,2024-02-27 15:50:12,14.98327981,0.0002523,70.0017,32.8838,269.693,90.394,-1.8564e-05,-3.14e-06,0.0,0 STARLINK-6336,1 56788U 23078X   24058.65986745 -.00000314  00000-0 -18564-4 0  9991,2 56788  70.0017  32.8838 0002523 269.6930  90.3940 14.98327981 42430,6950.199,96.107,573.818,570.311,0.0
56788.0,STARLINK-6336,PAYLOAD,2024-02-27 22:14:44,14.98326927,0.0002776,70.0001,32.211,269.2733,90.8108,-6.28e-09,-9.3e-07,0.0,0 STARLINK-6336,1 56788U 23078X   24058.92690746 -.00000093  00000-0 -62800-8 0  9994,2 56788  70.0001  32.2110 0002776 269.2733  90.8108 14.98326927 42213,6950.202,96.107,573.997,570.138,0.0
56788.0,STARLINK-6336,PAYLOAD,2024-02-28 07:51:32,14.98331145,0.0002678,70.0005,31.2001,267.6459,92.4394,7.0231e-05,7.45e-06,0.0,0 STARLINK-6336,1 56788U 23078X   24059.32746261  .00000745  00000-0  70231-4 0  9998,2 56788  70.0005  31.2001 0002678 267.6459  92.4394 14.98331145 42272,6950.189,96.107,573.916,570.193,0.0
56788.0,STARLINK-6336,PAYLOAD,2024-02-28 15:52:13,14.98316702,0.0002588,70.0005,30.3583,281.9934,78.0934,0.00020023,2.296e-05,0.0,0 STARLINK-6336,1 56788U 23078X   24059.66127062  .00002296  00000-0  20023-3 0  9993,2 56788  70.0005  30.3583 0002588 281.9934  78.0934 14.98316702 42580,6950.234,96.108,573.898,570.3,0.0
56788.0,STARLINK-6336,PAYLOAD,2024-02-28 22:16:45,14.98324113,0.0002364,70.0004,29.685,260.1446,99.9446,5.6894e-05,5.86e-06,0.0,0 STARLINK-6336,1 56788U 23078X   24059.92830721  .00000586  00000-0  56894-4 0  9991,2 56788  70.0004  29.6850 0002364 260.1446  99.9446 14.98324113 42367,6950.211,96.107,573.719,570.433,0.0
56788.0,STARLINK-6336,PAYLOAD,2024-02-29 07:53:34,14.98315909,0.0002607,70.0007,28.6751,269.8612,90.2248,0.00019206,2.199e-05,0.0,0 STARLINK-6336,1 56788U 23078X   24060.32887054  .00002199  00000-0  19206-3 0  9995,2 56788  70.0007  28.6751 0002607 269.8612  90.2248 14.98315909 42424,6950.236,96.108,573.913,570.29,0.0
56788.0,STARLINK-6336,PAYLOAD,2024-02-29 22:18:46,14.98331825,0.0002615,70.0007,27.1601,269.3546,90.7313,4.388e-06,-4.1e-07,0.0,0 STARLINK-6336,1 56788U 23078X   24060.92970554 -.00000041  00000-0  43880-5 0  9991,2 56788  70.0007  27.1601 0002615 269.3546  90.7313 14.98331825 42515,6950.187,96.107,573.87,570.235,0.0
56788.0,STARLINK-6336,PAYLOAD,2024-03-01 04:43:18,14.98334586,0.0002703,70.0005,26.4875,270.2024,89.8826,-3.9602e-06,-1.4e-06,0.0,0 STARLINK-6336,1 56788U 23078X   24061.19674367 -.00000140  00000-0 -39602-5 0  9992,2 56788  70.0005  26.4875 0002703 270.2024  89.8826 14.98334586 42816,6950.179,96.107,573.922,570.165,0.0
56788.0,STARLINK-6336,PAYLOAD,2024-03-01 07:55:34,14.98334652,0.0002726,70.0006,26.151,270.5359,89.5488,-3.7879e-06,-1.38e-06,0.0,0 STARLINK-6336,1 56788U 23078X   24061.33026338 -.00000138  00000-0 -37879-5 0  9998,2 56788  70.0006  26.1510 0002726 270.5359  89.5488 14.98334652 42577,6950.179,96.107,573.938,570.149,0.0
56788.0,STARLINK-6336,PAYLOAD,2024-03-01 22:20:47,14.98333353,0.0002721,70.0007,24.6362,271.8925,88.1922,7.1165e-05,7.56e-06,0.0,0 STARLINK-6336,1 56788U 23078X   24061.93110086  .00000756  00000-0  71165-4 0  9997,2 56788  70.0007  24.6362 0002721 271.8925  88.1922 14.98333353 42669,6950.183,96.107,573.939,570.156,0.0
56788.0,STARLINK-6336,PAYLOAD,2024-03-02 07:57:34,14.98338677,0.0002665,70.0009,23.6266,269.9589,90.1265,0.00011293,1.255e-05,0.0,0 STARLINK-6336,1 56788U 23078X   24062.33165482  .00001255  00000-0  11293-3 0  9992,2 56788  70.0009  23.6266 0002665 269.9589  90.1265 14.98338677 42986,6950.166,96.106,573.883,570.179,0.0
56788.0,STARLINK-6336,PAYLOAD,2024-03-02 22:22:48,14.9833213,0.0002287,70.002,22.1135,252.3996,107.6914,5.44e-06,-2.8e-07,0.0,0 STARLINK-6336,1 56788U 23078X   24062.93250007 -.00000028  00000-0  54400-5 0  9993,2 56788  70.0020  22.1135 0002287 252.3996 107.6914 14.98332130 42811,6950.186,96.107,573.641,570.462,0.0
56788.0,STARLINK-6336,PAYLOAD,2024-03-03 03:11:12,14.98329984,0.0002424,70.0023,21.6064,268.5226,91.5656,3.6987e-05,3.48e-06,0.0,0 STARLINK-6336,1 56788U 23078X   24063.13278050  .00000348  00000-0  36987-4 0  9997,2 56788  70.0023  21.6064 0002424 268.5226  91.5656 14.98329984 43107,6950.193,96.107,573.743,570.373,0.0
56788.0,STARLINK-6336,PAYLOAD,2024-03-03 06:23:28,14.9832769,0.0002263,70.0021,21.2702,256.3061,103.7846,1.292e-07,-9.1e-07,0.0,0 STARLINK-6336,1 56788U 23078X   24063.26630282 -.00000091  00000-0  12920-6 0  9999,2 56788  70.0021  21.2702 0002263 256.3061 103.7846 14.98327690 42864,6950.2,96.107,573.638,570.492,0.0
56788.0,STARLINK-6336,PAYLOAD,2024-03-04 03:13:13,14.98331732,0.0002541,70.0014,19.0819,259.5085,100.5788,-3.6699e-05,-5.31e-06,0.0,0 STARLINK-6336,1 56788U 23078X   24064.13417894 -.00000531  00000-0 -36699-4 0  9995,2 56788  70.0014  19.0819 0002541 259.5085 100.5788 14.98331732 43256,6950.188,96.107,573.819,570.286,0.0
56788.0,STARLINK-6336,PAYLOAD,2024-03-04 06:25:28,14.98340481,0.0002556,70.0011,18.7454,256.664,103.4234,8.6364e-06,1e-07,0.0,0 STARLINK-6336,1 56788U 23078X   24064.26769079  .00000010  00000-0  86364-5 0  9999,2 56788  70.0011  18.7454 0002556 256.6640 103.4234 14.98340481 43276,6950.16,96.106,573.802,570.249,0.0
56788.0,STARLINK-6336,PAYLOAD,2024-03-04 20:50:42,14.9829283,0.000265,70.0044,17.2296,265.5264,94.5592,0.00041764,4.889e-05,0.0,0 STARLINK-6336,1 56788U 23078X   24064.86854522  .00004889  00000-0  41764-3 0  9994,2 56788  70.0044  17.2296 0002650 265.5264  94.5592 14.98292830 43367,6950.308,96.109,574.015,570.331,0.0
56788.0,STARLINK-6336,PAYLOAD,2024-03-04 22:26:50,14.98292313,0.0002671,70.004,17.0616,265.6611,94.4242,0.00039726,4.646e-05,0.0,0 STARLINK-6336,1 56788U 23078X   24064.93530753  .00004646  00000-0  39726-3 0  9995,2 56788  70.0040  17.0616 0002671 265.6611  94.4242 14.98292313 43117,6950.309,96.109,574.031,570.318,0.0
56788.0,STARLINK-6336,PAYLOAD,2024-03-05 03:15:14,14.98321624,0.0002742,70.0013,16.5558,262.8461,97.2386,-9.0308e-05,-1.17e-05,0.0,0 STARLINK-6336,1 56788U 23078X   24065.13558705 -.00001170  00000-0 -90308-4 0  9990,2 56788  70.0013  16.5558 0002742 262.8461  97.2386 14.98321624 43407,6950.219,96.108,573.99,570.178,0.0
56788.0,STARLINK-6336,PAYLOAD,2024-03-05 06:27:30,14.98324094,0.0002718,70.0014,16.2192,263.3261,96.7589,-5.9809e-05,-8.06e-06,0.0,0 STARLINK-6336,1 56788U 23078X   24065.26910522 -.00000806  00000-0 -59809-4 0  9999,2 56788  70.0014  16.2192 0002718 263.3261  96.7589 14.98324094 43162,6950.211,96.107,573.965,570.187,0.0
56788.0,STARLINK-6336,PAYLOAD,2024-03-05 19:16:34,14.98326233,0.0002932,70.0012,14.8726,266.0807,94.0017,3.6555e-05,3.43e-06,0.0,0 STARLINK-6336,1 56788U 23078X   24065.80318172  .00000343  00000-0  36555-4 0  9999,2 56788  70.0012  14.8726 0002932 266.0807  94.0017 14.98326233 43503,6950.205,96.107,574.107,570.032,0.0
56788.0,STARLINK-6336,PAYLOAD,2024-03-06 06:29:30,14.98334571,0.0002712,70.0012,13.6948,259.2776,100.8078,6.1218e-05,6.38e-06,0.0,0 STARLINK-6336,1 56788U 23078X   24066.27049577  .00000638  00000-0  61218-4 0  9992,2 56788  70.0012  13.6948 0002712 259.2776 100.8078 14.98334571 43575,6950.179,96.107,573.929,570.159,0.0
